RESURS-DK 1             
1 29228U 06021A   26177.81853297  .00002398  00000+0  14057-3 0  9999
2 29228  69.9337 314.6217 0006757 287.2968  72.7458 15.13254935104032
SAR-LUPE 2              
1 31797U 07030A   26177.96074383  .00018848  00000+0  31940-3 0  9998
2 31797  98.1046 283.6146 0002490 181.7242 178.4000 15.51593951 58453
SARAL                   
1 39086U 13009A   26177.95686304  .00000081  00000+0  45590-4 0  9998
2 39086  98.5557   4.4003 0000716 230.2881 129.8240 14.32858184697008
SAOCOM 1A               
1 43641U 18076A   26177.99259666  .00000330  00000+0  48057-4 0  9998
2 43641  97.8885   4.5988 0001549  79.5044 280.6344 14.82154636417556
SAUDISAT 5A             
1 43831U 18102A   26177.98732763  .00006151  00000+0  22648-3 0  9996
2 43831  97.3070 239.3794 0011327  99.3793 260.8728 15.28145340417174
RISAT-2B                
1 44233U 19028A   26177.72673124  .00003395  00000+0  26210-3 0  9994
2 44233  36.9978 297.5118 0003779 121.1465 238.9649 15.01710889389268
RISAT-2BR1              
1 44857U 19089F   26177.92813848  .00003989  00000+0  30631-3 0  9995
2 44857  36.9609  53.8110 0013041 255.1121 104.8177 15.01708770358669
SAOCOM 1B               
1 46265U 20059A   26177.95625817  .00000388  00000+0  55312-4 0  9993
2 46265  97.8887   3.6579 0001559  89.7654 270.3738 14.82145864314934
RISAT-2BR2              
1 46905U 20081A   26177.98977060  .00002585  00000+0  20087-3 0  9993
2 46905  36.8968 166.0622 0012174 243.1986 116.7511 15.01662591308949
RESURS-P 4              
1 59371U 24061A   26177.99432716  .00003251  00000+0  10710-3 0  9994
2 59371  97.2751 125.7223 0002789 115.4470 244.7061 15.32184414125261
